ORBCOMM FM115           
1 41186U 15081H   25161.76493643  .00000414  00000+0  11530-3 0  9993
2 41186  46.9991  70.1001 0000914 346.1246  13.9616 14.62492153506834
ORBCOMM FM108           
1 41187U 15081J   25162.34618201  .00000653  00000+0  17678-3 0  9992
2 41187  47.0037 134.5551 0003601 288.9608  71.0887 14.58162012506023
ORBCOMM FM117           
1 41188U 15081K   25162.31242873  .00000202  00000+0  80103-4 0  9992
2 41188  46.9999 133.4784 0004075 295.4510  64.5953 14.58141924506037
ORBCOMM FM116           
1 41189U 15081L   25162.50668359  .00000360  00000+0  11379-3 0  9998
2 41189  47.0012 222.4095 0001621 159.3695 200.7256 14.58170149504899
